[
    {
        "Altitude(m)": 714804.8401371685,
        "Argument of Periapsis(deg)": 0.010251109067964361,
        "Eccentricity": 0.0,
        "Inclination(deg)": 45.0,
        "Latitude(deg)": -37.70144160121145,
        "Longitude(deg)": -100.44916473404776,
        "Mean Anomaly(deg)": -120.5292050172672,
        "RAAN(deg)": 129.99032325268763,
        "Satellite Name": "Constellation 1 586",
        "Satellite Number": 586,
        "Semi-Major Axis(m)": 7083131.272910544,
        "Time(s)": 171
    },
    {
        "Altitude(m)": 714816.1334201954,
        "Argument of Periapsis(deg)": 0.010311057074209765,
        "Eccentricity": 0.0,
        "Inclination(deg)": 45.0,
        "Latitude(deg)": -37.72889455387411,
        "Longitude(deg)": -100.38511926636616,
        "Mean Anomaly(deg)": -120.4685038770174,
        "RAAN(deg)": 129.99026666352205,
        "Satellite Name": "Constellation 1 586",
        "Satellite Number": 586,
        "Semi-Major Axis(m)": 7083131.272910544,
        "Time(s)": 172
    },
    {
        "Altitude(m)": 714827.4115320883,
        "Argument of Periapsis(deg)": 0.010371005080455171,
        "Eccentricity": 0.0,
        "Inclination(deg)": 45.0,
        "Latitude(deg)": -37.75630791526981,
        "Longitude(deg)": -100.32102364203962,
        "Mean Anomaly(deg)": -120.40780273676742,
        "RAAN(deg)": 129.99021007435647,
        "Satellite Name": "Constellation 1 586",
        "Satellite Number": 586,
        "Semi-Major Axis(m)": 7083131.272910544,
        "Time(s)": 173
    },
    {
        "Altitude(m)": 714838.6744319581,
        "Argument of Periapsis(deg)": 0.010430953086700577,
        "Eccentricity": 0.0,
        "Inclination(deg)": 45.0,
        "Latitude(deg)": -37.78368161820297,
        "Longitude(deg)": -100.25687784680102,
        "Mean Anomaly(deg)": -120.34710159651746,
        "RAAN(deg)": 129.99015348519092,
        "Satellite Name": "Constellation 1 586",
        "Satellite Number": 586,
        "Semi-Major Axis(m)": 7083131.272910544,
        "Time(s)": 174
    },
    {
        "Altitude(m)": 714849.9220789734,
        "Argument of Periapsis(deg)": 0.010490901092945983,
        "Eccentricity": 0.0,
        "Inclination(deg)": 45.0,
        "Latitude(deg)": -37.811015595441454,
        "Longitude(deg)": -100.19268186670865,
        "Mean Anomaly(deg)": -120.28640045626766,
        "RAAN(deg)": 129.99009689602534,
        "Satellite Name": "Constellation 1 586",
        "Satellite Number": 586,
        "Semi-Major Axis(m)": 7083131.272910544,
        "Time(s)": 175
    },
    {
        "Altitude(m)": 714861.1544323508,
        "Argument of Periapsis(deg)": 0.010550849099191389,
        "Eccentricity": 0.0,
        "Inclination(deg)": 45.0,
        "Latitude(deg)": -37.8383097797168,
        "Longitude(deg)": -100.12843568814749,
        "Mean Anomaly(deg)": -120.22569931601774,
        "RAAN(deg)": 129.99004030685978,
        "Satellite Name": "Constellation 1 586",
        "Satellite Number": 586,
        "Semi-Major Axis(m)": 7083131.272910544,
        "Time(s)": 176
    },
    {
        "Altitude(m)": 714872.3714513585,
        "Argument of Periapsis(deg)": 0.010610797105436795,
        "Eccentricity": 0.0,
        "Inclination(deg)": 45.0,
        "Latitude(deg)": -37.865564103724516,
        "Longitude(deg)": -100.06413929783112,
        "Mean Anomaly(deg)": -120.16499817576785,
        "RAAN(deg)": 129.9899837176942,
        "Satellite Name": "Constellation 1 586",
        "Satellite Number": 586,
        "Semi-Major Axis(m)": 7083131.272910544,
        "Time(s)": 177
    },
    {
        "Altitude(m)": 714883.5730953178,
        "Argument of Periapsis(deg)": 0.0106707451116822,
        "Eccentricity": 0.0,
        "Inclination(deg)": 45.0,
        "Latitude(deg)": -37.89277850012456,
        "Longitude(deg)": -99.99979285090006,
        "Mean Anomaly(deg)": -120.10429703551792,
        "RAAN(deg)": 129.98992712852865,
        "Satellite Name": "Constellation 1 586",
        "Satellite Number": 586,
        "Semi-Major Axis(m)": 7083131.272910544,
        "Time(s)": 178
    },
    {
        "Altitude(m)": 714894.7593236018,
        "Argument of Periapsis(deg)": 0.010730693117927606,
        "Eccentricity": 0.0,
        "Inclination(deg)": 45.0,
        "Latitude(deg)": -37.91995290154183,
        "Longitude(deg)": -99.93539599853425,
        "Mean Anomaly(deg)": -120.04359589526808,
        "RAAN(deg)": 129.98987053936307,
        "Satellite Name": "Constellation 1 586",
        "Satellite Number": 586,
        "Semi-Major Axis(m)": 7083131.272910544,
        "Time(s)": 179
    },
    {
        "Altitude(m)": 714905.9300956327,
        "Argument of Periapsis(deg)": 0.01079064112417301,
        "Eccentricity": 0.0,
        "Inclination(deg)": 45.0,
        "Latitude(deg)": -37.94708724056634,
        "Longitude(deg)": -99.87094889653804,
        "Mean Anomaly(deg)": -119.98289475501815,
        "RAAN(deg)": 129.9898139501975,
        "Satellite Name": "Constellation 1 586",
        "Satellite Number": 586,
        "Semi-Major Axis(m)": 7083131.272910544,
        "Time(s)": 180
    },
    {
        "Altitude(m)": 714917.0853708934,
        "Argument of Periapsis(deg)": 0.010850589130418416,
        "Eccentricity": 0.0,
        "Inclination(deg)": 45.0,
        "Latitude(deg)": -37.97418144975375,
        "Longitude(deg)": -99.80645153295242,
        "Mean Anomaly(deg)": -119.92219361476826,
        "RAAN(deg)": 129.9897573610319,
        "Satellite Name": "Constellation 1 586",
        "Satellite Number": 586,
        "Semi-Major Axis(m)": 7083131.272910544,
        "Time(s)": 181
    },
    {
        "Altitude(m)": 714928.2251089123,
        "Argument of Periapsis(deg)": 0.01091053713666382,
        "Eccentricity": 0.0,
        "Inclination(deg)": 45.0,
        "Latitude(deg)": -38.001235461625804,
        "Longitude(deg)": -99.74190389615404,
        "Mean Anomaly(deg)": -119.86149247451834,
        "RAAN(deg)": 129.98970077186635,
        "Satellite Name": "Constellation 1 586",
        "Satellite Number": 586,
        "Semi-Major Axis(m)": 7083131.272910544,
        "Time(s)": 182
    },
    {
        "Altitude(m)": 714939.3492692716,
        "Argument of Periapsis(deg)": 0.010970485142909228,
        "Eccentricity": 0.0,
        "Inclination(deg)": 45.0,
        "Latitude(deg)": -38.028249208670644,
        "Longitude(deg)": -99.67730597485642,
        "Mean Anomaly(deg)": -119.80079133426841,
        "RAAN(deg)": 129.9896441827008,
        "Satellite Name": "Constellation 1 586",
        "Satellite Number": 586,
        "Semi-Major Axis(m)": 7083131.272910544,
        "Time(s)": 183
    },
    {
        "Altitude(m)": 714950.4578116077,
        "Argument of Periapsis(deg)": 0.011030433149154634,
        "Eccentricity": 0.0,
        "Inclination(deg)": 45.0,
        "Latitude(deg)": -38.05522262334328,
        "Longitude(deg)": -99.61265775811144,
        "Mean Anomaly(deg)": -119.74009019401858,
        "RAAN(deg)": 129.98958759353522,
        "Satellite Name": "Constellation 1 586",
        "Satellite Number": 586,
        "Semi-Major Axis(m)": 7083131.272910544,
        "Time(s)": 184
    },
    {
        "Altitude(m)": 714961.5506956127,
        "Argument of Periapsis(deg)": 0.01109038115540004,
        "Eccentricity": 0.0,
        "Inclination(deg)": 45.0,
        "Latitude(deg)": -38.082155638066,
        "Longitude(deg)": -99.54795940340782,
        "Mean Anomaly(deg)": -119.67938905376862,
        "RAAN(deg)": 129.98953100436967,
        "Satellite Name": "Constellation 1 586",
        "Satellite Number": 586,
        "Semi-Major Axis(m)": 7083131.272910544,
        "Time(s)": 185
    },
    {
        "Altitude(m)": 714972.627881026,
        "Argument of Periapsis(deg)": 0.011150329161645444,
        "Eccentricity": 0.0,
        "Inclination(deg)": 45.0,
        "Latitude(deg)": -38.109048185228886,
        "Longitude(deg)": -99.48321056428388,
        "Mean Anomaly(deg)": -119.61868791351876,
        "RAAN(deg)": 129.98947441520406,
        "Satellite Name": "Constellation 1 586",
        "Satellite Number": 586,
        "Semi-Major Axis(m)": 7083131.272910544,
        "Time(s)": 186
    },
    {
        "Altitude(m)": 714983.6893276467,
        "Argument of Periapsis(deg)": 0.01121027716789085,
        "Eccentricity": 0.0,
        "Inclination(deg)": 45.0,
        "Latitude(deg)": -38.13590019718999,
        "Longitude(deg)": -99.41841139891217,
        "Mean Anomaly(deg)": -119.55798677326885,
        "RAAN(deg)": 129.9894178260385,
        "Satellite Name": "Constellation 1 586",
        "Satellite Number": 586,
        "Semi-Major Axis(m)": 7083131.272910544,
        "Time(s)": 187
    },
    {
        "Altitude(m)": 714994.7349953243,
        "Argument of Periapsis(deg)": 0.011270225174136258,
        "Eccentricity": 0.0,
        "Inclination(deg)": 45.0,
        "Latitude(deg)": -38.16271160627591,
        "Longitude(deg)": -99.35356189771218,
        "Mean Anomaly(deg)": -119.49728563301893,
        "RAAN(deg)": 129.98936123687292,
        "Satellite Name": "Constellation 1 586",
        "Satellite Number": 586,
        "Semi-Major Axis(m)": 7083131.272910544,
        "Time(s)": 188
    },
    {
        "Altitude(m)": 715005.7648439612,
        "Argument of Periapsis(deg)": 0.011330173180381662,
        "Eccentricity": 0.0,
        "Inclination(deg)": 45.0,
        "Latitude(deg)": -38.18948234478221,
        "Longitude(deg)": -99.28866205144884,
        "Mean Anomaly(deg)": -119.43658449276906,
        "RAAN(deg)": 129.98930464770737,
        "Satellite Name": "Constellation 1 586",
        "Satellite Number": 586,
        "Semi-Major Axis(m)": 7083131.272910544,
        "Time(s)": 189
    }
]